start=new Date('2022-06-28T00:00:00.000Z').valueOf();
sats=[{"BSTAR":"0.00124440000000","APOAPSIS":"540.966","OBJECT_NAME":"STARLINK-3705","RCS_SIZE":"LARGE","MEAN_ELEMENT_THEORY":"SGP4","PERIAPSIS":"538.630","MEAN_MOTION_DOT":"0.00019563","CENTER_NAME":"EARTH","TIME_SYSTEM":"UTC","EPOCH":"2022-06-27T22:00:00.999936","TLE_LINE2":"2 52103  53.2162  22.9800 0001688  48.4996 206.1090 15.08822838 16859","REV_AT_EPOCH":"1685","MEAN_MOTION":"15.08822838","COUNTRY_CODE":"US","EPHEMERIS_TYPE":"0","SITE":"AFETR","CLASSIFICATION_TYPE":"U","ECCENTRICITY":"0.00016880","MEAN_MOTION_DDOT":"0.0000000000000","MEAN_ANOMALY":"206.1090","PERIOD":"95.439","INCLINATION":"53.2162","GP_ID":"206966226","NORAD_CAT_ID":"52103","DECAY_DATE":null,"REF_FRAME":"TEME","RA_OF_ASC_NODE":"22.9800","TLE_LINE1":"1 52103U 22029R   22178.91667824  .00019563  00000-0  12444-2 0  9990","SEMIMAJOR_AXIS":"6917.933","ELEMENT_SET_NO":"999","OBJECT_ID":"2022-029R","LAUNCH_DATE":"2022-03-19","FILE":"3503982","ARG_OF_PERICENTER":"48.4996","OBJECT_TYPE":"PAYLOAD"},{"MEAN_ANOMALY":"237.3224","PERIOD":"95.438","INCLINATION":"53.2153","GP_ID":"206994388","COUNTRY_CODE":"US","MEAN_MOTION":"15.08825549","SITE":"AFETR","EPHEMERIS_TYPE":"0","CLASSIFICATION_TYPE":"U","ECCENTRICITY":"0.00016580","MEAN_MOTION_DDOT":"0.0000000000000","CENTER_NAME":"EARTH","TIME_SYSTEM":"UTC","EPOCH":"2022-06-27T22:00:00.999936","REV_AT_EPOCH":"130","TLE_LINE2":"2 52105  53.2153  22.9771 0001658  52.0711 237.3224 15.08825549  1302","APOAPSIS":"540.937","BSTAR":"0.00123670000000","OBJECT_NAME":"STARLINK-3706","MEAN_ELEMENT_THEORY":"SGP4","RCS_SIZE":"LARGE","MEAN_MOTION_DOT":"0.00019441","PERIAPSIS":"538.643","OBJECT_TYPE":"PAYLOAD","ARG_OF_PERICENTER":"52.0711","FILE":"3504144","OBJECT_ID":"2022-029T","LAUNCH_DATE":"2022-03-19","NORAD_CAT_ID":"52105","REF_FRAME":"TEME","DECAY_DATE":null,"RA_OF_ASC_NODE":"22.9771","TLE_LINE1":"1 52105U 22029T   22178.91667824  .00019441  00000-0  12367-2 0  9991","SEMIMAJOR_AXIS":"6917.925","ELEMENT_SET_NO":"999"},{"ARG_OF_PERICENTER":"65.8018","OBJECT_TYPE":"PAYLOAD","FILE":"3503983","LAUNCH_DATE":"2022-03-19","OBJECT_ID":"2022-029U","ELEMENT_SET_NO":"999","SEMIMAJOR_AXIS":"6917.976","TLE_LINE1":"1 52106U 22029U   22178.91667824  .00006684  00000-0  43802-3 0  9996","RA_OF_ASC_NODE":"32.9647","DECAY_DATE":null,"REF_FRAME":"TEME","NORAD_CAT_ID":"52106","GP_ID":"206966731","INCLINATION":"53.2186","MEAN_ANOMALY":"113.7900","PERIOD":"95.440","MEAN_MOTION_DDOT":"0.0000000000000","ECCENTRICITY":"0.00013550","CLASSIFICATION_TYPE":"U","EPHEMERIS_TYPE":"0","SITE":"AFETR","MEAN_MOTION":"15.08808864","COUNTRY_CODE":"US","TLE_LINE2":"2 52106  53.2186  32.9647 0001355  65.8018 113.7900 15.08808864 16729","REV_AT_EPOCH":"1672","EPOCH":"2022-06-27T22:00:00.999936","TIME_SYSTEM":"UTC","CENTER_NAME":"EARTH","PERIAPSIS":"538.903","MEAN_MOTION_DOT":"0.00006684","RCS_SIZE":"LARGE","MEAN_ELEMENT_THEORY":"SGP4","OBJECT_NAME":"STARLINK-3670","BSTAR":"0.00043802000000","APOAPSIS":"540.778"},{"MEAN_MOTION_DDOT":"0.0000000000000","ECCENTRICITY":"0.00020510","CLASSIFICATION_TYPE":"U","SITE":"AFETR","EPHEMERIS_TYPE":"0","COUNTRY_CODE":"US","MEAN_MOTION":"15.08815662","GP_ID":"206994631","INCLINATION":"53.2144","MEAN_ANOMALY":"273.9935","PERIOD":"95.439","MEAN_MOTION_DOT":"0.00018644","PERIAPSIS":"538.401","MEAN_ELEMENT_THEORY":"SGP4","RCS_SIZE":"LARGE","OBJECT_NAME":"STARLINK-3658","APOAPSIS":"541.239","BSTAR":"0.00118720000000","REV_AT_EPOCH":"130","TLE_LINE2":"2 52107  53.2144  22.9750 0002051  40.6166 273.9935 15.08815662  1306","EPOCH":"2022-06-27T22:00:00.999936","TIME_SYSTEM":"UTC","CENTER_NAME":"EARTH","FILE":"3504144","OBJECT_TYPE":"PAYLOAD","ARG_OF_PERICENTER":"40.6166","SEMIMAJOR_AXIS":"6917.955","ELEMENT_SET_NO":"999","RA_OF_ASC_NODE":"22.9750","TLE_LINE1":"1 52107U 22029V   22178.91667824  .00018644  00000-0  11872-2 0  9997","REF_FRAME":"TEME","DECAY_DATE":null,"NORAD_CAT_ID":"52107","LAUNCH_DATE":"2022-03-19","OBJECT_ID":"2022-029V"},{"PERIOD":"95.438","MEAN_ANOMALY":"228.0843","INCLINATION":"53.2158","GP_ID":"206994492","EPHEMERIS_TYPE":"0","SITE":"AFETR","MEAN_MOTION":"15.08833217","COUNTRY_CODE":"US","MEAN_MOTION_DDOT":"0.0000000000000","CLASSIFICATION_TYPE":"U","ECCENTRICITY":"0.00017650","EPOCH":"2022-06-27T22:00:00.999936","TIME_SYSTEM":"UTC","CENTER_NAME":"EARTH","TLE_LINE2":"2 52108  53.2158  22.9788 0001765  46.5239 228.0843 15.08833217  1305","REV_AT_EPOCH":"130","OBJECT_NAME":"STARLINK-3698","BSTAR":"0.00124080000000","APOAPSIS":"540.987","PERIAPSIS":"538.545","MEAN_MOTION_DOT":"0.00019511","RCS_SIZE":"LARGE","MEAN_ELEMENT_THEORY":"SGP4","ARG_OF_PERICENTER":"46.5239","OBJECT_TYPE":"PAYLOAD","FILE":"3504144","LAUNCH_DATE":"2022-03-19","OBJECT_ID":"2022-029W","DECAY_DATE":null,"REF_FRAME":"TEME","NORAD_CAT_ID":"52108","SEMIMAJOR_AXIS":"6917.901","ELEMENT_SET_NO":"999","RA_OF_ASC_NODE":"22.9788","TLE_LINE1":"1 52108U 22029W   22178.91667824  .00019511  00000-0  12408-2 0  9998"},{"FILE":"3503983","ARG_OF_PERICENTER":"45.9360","OBJECT_TYPE":"PAYLOAD","NORAD_CAT_ID":"52110","REF_FRAME":"TEME","DECAY_DATE":null,"RA_OF_ASC_NODE":"22.9768","TLE_LINE1":"1 52110U 22029Y   22178.91667824  .00019117  00000-0  12165-2 0  9993","SEMIMAJOR_AXIS":"6917.932","ELEMENT_SET_NO":"999","OBJECT_ID":"2022-029Y","LAUNCH_DATE":"2022-03-19","MEAN_MOTION":"15.08823050","COUNTRY_CODE":"US","EPHEMERIS_TYPE":"0","SITE":"AFETR","ECCENTRICITY":"0.00019010","CLASSIFICATION_TYPE":"U","MEAN_MOTION_DDOT":"0.0000000000000","MEAN_ANOMALY":"248.6558","PERIOD":"95.439","INCLINATION":"53.2153","GP_ID":"206966238","BSTAR":"0.00121650000000","APOAPSIS":"541.112","OBJECT_NAME":"STARLINK-3687","RCS_SIZE":"LARGE","MEAN_ELEMENT_THEORY":"SGP4","PERIAPSIS":"538.482","MEAN_MOTION_DOT":"0.00019117","TIME_SYSTEM":"UTC","CENTER_NAME":"EARTH","EPOCH":"2022-06-27T22:00:00.999936","TLE_LINE2":"2 52110  53.2153  22.9768 0001901  45.9360 248.6558 15.08823050 16852","REV_AT_EPOCH":"1685"},{"FILE":"3504090","ARG_OF_PERICENTER":"47.2006","OBJECT_TYPE":"PAYLOAD","RA_OF_ASC_NODE":"22.9726","TLE_LINE1":"1 52111U 22029Z   22178.91667824  .00018051  00000-0  11504-2 0  9996","SEMIMAJOR_AXIS":"6917.984","ELEMENT_SET_NO":"999","NORAD_CAT_ID":"52111","DECAY_DATE":null,"REF_FRAME":"TEME","OBJECT_ID":"2022-029Z","LAUNCH_DATE":"2022-03-19","CLASSIFICATION_TYPE":"U","ECCENTRICITY":"0.00017780","MEAN_MOTION_DDOT":"0.0000000000000","MEAN_MOTION":"15.08806083","COUNTRY_CODE":"US","EPHEMERIS_TYPE":"0","SITE":"AFETR","INCLINATION":"53.2134","GP_ID":"206968989","PERIOD":"95.440","MEAN_ANOMALY":"327.4127","RCS_SIZE":"LARGE","MEAN_ELEMENT_THEORY":"SGP4","PERIAPSIS":"538.619","MEAN_MOTION_DOT":"0.00018051","BSTAR":"0.00115040000000","APOAPSIS":"541.079","OBJECT_NAME":"STARLINK-3708","TLE_LINE2":"2 52111  53.2134  22.9726 0001778  47.2006 327.4127 15.08806083 16866","REV_AT_EPOCH":"1686","CENTER_NAME":"EARTH","TIME_SYSTEM":"UTC","EPOCH":"2022-06-27T22:00:00.999936"},{"MEAN_ANOMALY":"286.5182","PERIOD":"95.438","INCLINATION":"53.2137","GP_ID":"206969001","SITE":"AFETR","EPHEMERIS_TYPE":"0","COUNTRY_CODE":"US","MEAN_MOTION":"15.08834647","MEAN_MOTION_DDOT":"0.0000000000000","ECCENTRICITY":"0.00019610","CLASSIFICATION_TYPE":"U","EPOCH":"2022-06-27T22:00:00.999936","TIME_SYSTEM":"UTC","CENTER_NAME":"EARTH","REV_AT_EPOCH":"1685","TLE_LINE2":"2 52112  53.2137  22.9736 0001961  48.0958 286.5182 15.08834647 16852","OBJECT_NAME":"STARLINK-3734","APOAPSIS":"541.118","BSTAR":"0.00047590000000","MEAN_MOTION_DOT":"0.00007293","PERIAPSIS":"538.405","MEAN_ELEMENT_THEORY":"SGP4","RCS_SIZE":"LARGE","OBJECT_TYPE":"PAYLOAD","ARG_OF_PERICENTER":"48.0958","FILE":"3504090","LAUNCH_DATE":"2022-03-19","OBJECT_ID":"2022-029AA","REF_FRAME":"TEME","DECAY_DATE":null,"NORAD_CAT_ID":"52112","ELEMENT_SET_NO":"999","SEMIMAJOR_AXIS":"6917.897","RA_OF_ASC_NODE":"22.9736","TLE_LINE1":"1 52112U 22029AA  22178.91667824  .00007293  00000-0  47590-3 0  9998"},{"OBJECT_NAME":"STARLINK-3736","BSTAR":"-0.00180370000000","APOAPSIS":"541.111","PERIAPSIS":"538.329","MEAN_MOTION_DOT":"-0.00028887","RCS_SIZE":"LARGE","MEAN_ELEMENT_THEORY":"SGP4","EPOCH":"2022-06-27T22:00:00.999936","CENTER_NAME":"EARTH","TIME_SYSTEM":"UTC","TLE_LINE2":"2 52113  53.2158  22.9625 0002011  47.7945   6.7984 15.08848269 16860","REV_AT_EPOCH":"1686","EPHEMERIS_TYPE":"0","SITE":"AFETR","MEAN_MOTION":"15.08848269","COUNTRY_CODE":"US","MEAN_MOTION_DDOT":"0.0000000000000","ECCENTRICITY":"0.00020110","CLASSIFICATION_TYPE":"U","PERIOD":"95.437","MEAN_ANOMALY":"6.7984","GP_ID":"206969356","INCLINATION":"53.2158","REF_FRAME":"TEME","DECAY_DATE":null,"NORAD_CAT_ID":"52113","ELEMENT_SET_NO":"999","SEMIMAJOR_AXIS":"6917.855","TLE_LINE1":"1 52113U 22029AB  22178.91667824 -.00028887  00000-0 -18037-2 0  9996","RA_OF_ASC_NODE":"22.9625","LAUNCH_DATE":"2022-03-19","OBJECT_ID":"2022-029AB","FILE":"3504090","ARG_OF_PERICENTER":"47.7945","OBJECT_TYPE":"PAYLOAD"},{"TIME_SYSTEM":"UTC","CENTER_NAME":"EARTH","EPOCH":"2022-06-27T22:00:00.999936","TLE_LINE2":"2 52114  53.2144  22.9740 0001905  45.8545 308.7507 15.08814551  1306","REV_AT_EPOCH":"130","BSTAR":"0.00115630000000","APOAPSIS":"541.141","OBJECT_NAME":"STARLINK-3737","RCS_SIZE":"LARGE","MEAN_ELEMENT_THEORY":"SGP4","PERIAPSIS":"538.505","MEAN_MOTION_DOT":"0.00018150","PERIOD":"95.439","MEAN_ANOMALY":"308.7507","GP_ID":"206994389","INCLINATION":"53.2144","MEAN_MOTION":"15.08814551","COUNTRY_CODE":"US","EPHEMERIS_TYPE":"0","SITE":"AFETR","ECCENTRICITY":"0.00019050","CLASSIFICATION_TYPE":"U","MEAN_MOTION_DDOT":"0.0000000000000","OBJECT_ID":"2022-029AC","LAUNCH_DATE":"2022-03-19","NORAD_CAT_ID":"52114","DECAY_DATE":null,"REF_FRAME":"TEME","TLE_LINE1":"1 52114U 22029AC  22178.91667824  .00018150  00000-0  11563-2 0  9994","RA_OF_ASC_NODE":"22.9740","ELEMENT_SET_NO":"999","SEMIMAJOR_AXIS":"6917.958","ARG_OF_PERICENTER":"45.8545","OBJECT_TYPE":"PAYLOAD","FILE":"3504144"}];
